# From MPC182888
143P/Kowal-Mrkos,e,5.4410,242.4564,304.3482,4.777022,0.0943992,0.38252573,308.2607,06/26.0/2025,2000,g 13.5,2.0
# From MPEC 2024-YC7
144P/Kushida,e,3.9317,242.9246,216.3606,3.833784,0.1312994,0.63496562,67.9050,06/26.0/2025,2000,g  8.5,8.0
# From MPEC 2025-MC0
145P/Shoemaker-Levy,e,11.2778,26.7697,10.4049,4.130422,0.1174120,0.54246312,334.1798,06/26.0/2025,2000,g 13.5,4.0
# From MPC184418
146P/Shoemaker-LINEAR,e,23.1177,53.3562,317.0418,4.025235,0.1220442,0.64758114,39.6136,06/26.0/2025,2000,g 15.0,4.0
# From MPEC 2024-UQ8
147P/Kushida-Muramatsu,e,2.3115,91.6675,348.6058,4.009783,0.1227503,0.21179160,69.5397,06/26.0/2025,2000,g 14.0,4.0
# From MPEC 2024-JU4
148P/Anderson-LINEAR,e,3.6589,89.1952,8.0814,3.620192,0.1430891,0.55039050,158.5000,06/26.0/2025,2000,g 16.0,2.0
# From MPEC 2023-J29
149P/Mueller,e,34.2360,143.7552,30.2255,4.130302,0.1174171,0.32445451,296.7767,06/26.0/2025,2000,g  8.0,8.0
# From MPEC 2024-NE4
150P/LONEOS,e,18.5484,272.0557,246.1238,3.871945,0.1293631,0.54922264,60.8613,06/26.0/2025,2000,g 13.5,4.0
# From MPEC 2022-K19
151P/Helin,e,4.7253,143.1220,216.1555,5.766495,0.0711764,0.57252882,252.2421,06/26.0/2025,2000,g 10.0,6.0
# From MPC182888
152P/Helin-Lawrence,e,9.8798,91.7754,164.4419,4.485912,0.1037356,0.30682660,130.6785,06/26.0/2025,2000,g 11.5,4.0
# From MPC 46101
153P/Ikeya-Zhang,e,28.4994,93.8024,34.2192,50.48580,0.0027476,0.99016377,0.0000,03/12.5547/2002,2000,g  9.0,4.0
# From MPC184418
154P/Brewington,e,17.6385,342.9954,47.9292,4.795414,0.0938566,0.67626642,35.4582,06/26.0/2025,2000,g  2.5,12.0
# From MPEC 2022-YN2
155P/Shoemaker,e,6.4107,97.1568,14.5317,6.571919,0.0585013,0.72767751,119.7858,06/26.0/2025,2000,g 10.0,4.8
# From MPEC 2023-J29
156P/Russell-LINEAR,e,17.2607,35.3339,0.5264,3.462656,0.1529643,0.61486024,256.9793,06/26.0/2025,2000,g 15.5,2.0
# From MPEC 2024-D33
157P/Tritton,e,12.4245,287.4978,155.1789,3.548017,0.1474774,0.55679457,150.4019,06/26.0/2025,2000,g 10.0,4.0
# From MPEC 2022-VC5
157P-B/Tritton,e,12.4253,153.8801,287.2106,3.102745,0.1803370,0.49989271,184.2287,06/26.0/2025,2000,g 15.7,4.0
# From MPC182888
158P/Kowal-LINEAR,e,7.4539,124.4061,229.7197,5.688840,0.0726388,0.11725362,74.1620,06/26.0/2025,2000,g  9.0,4.0
# From MPEC 2024-DC6
159P/LONEOS,e,23.4832,54.9389,4.7287,5.855200,0.0695651,0.38253478,180.0190,06/26.0/2025,2000,g 10.0,4.0
# From MPEC 2022-K19
160P/LINEAR,e,15.5948,333.3483,12.7793,3.779757,0.1341245,0.52499768,272.7897,06/26.0/2025,2000,g 15.5,2.0
# From MPC 75721
161P/Hartley-IRAS,e,95.8182,1.5134,47.0671,7.715905,0.0459858,0.83583034,336.0891,06/26.0/2025,2000,g  8.5,6.0
# From MPEC 2025-MC0
162P/SidingSpring,e,27.5533,30.8761,357.2378,3.091828,0.1812930,0.58293507,300.9305,06/26.0/2025,2000,g 12.0,4.0
# From MPEC 2021-S45
163P/NEAT,e,12.7212,102.0724,349.6365,3.761001,0.1351291,0.45348339,290.2845,06/26.0/2025,2000,g 14.5,4.0
# From MPEC 2024-TD8
164P/Christensen,e,16.2773,88.2691,325.9515,3.652215,0.1412114,0.54134715,4.1796,06/26.0/2025,2000,g 11.0,4.0
# From MPC 75721
165P/LINEAR,e,15.9088,0.6724,125.8837,17.81450,0.0131082,0.61925751,119.8436,06/26.0/2025,2000,g 11.5,2.0
# From MPC 75722
166P/NEAT,e,15.3776,64.4395,321.8545,13.84230,0.0191378,0.38282585,161.1545,06/26.0/2025,2000,g  5.5,4.0
# From MPEC 2023-J29
167P/CINEOS,e,19.0749,295.8370,344.4387,16.25119,0.0150444,0.26784266,133.2571,06/26.0/2025,2000,g  9.5,2.0
# From MPEC 2023-J29
168P/Hergenrother,e,21.5948,355.3879,15.1006,3.586759,0.1450944,0.62126622,311.5026,06/26.0/2025,2000,g 15.5,4.0
# From MPC184418
169P/NEAT,e,11.2867,176.0572,218.1226,2.603635,0.2346032,0.76803884,253.8813,06/26.0/2025,2000,g 16.0,2.0
# From MPC184418
170P/Christensen,e,10.1301,142.6371,224.7227,4.193991,0.1147527,0.30527909,92.0728,06/26.0/2025,2000,g 12.0,4.0
# From MPC102102
171P/Spahr,e,21.9508,101.6999,347.0878,3.552477,0.1471998,0.50279424,346.5988,06/26.0/2025,2000,g 13.5,4.0
# From MPEC 2025-MC0
172P/Yeung,e,11.2230,30.8826,208.8929,4.223634,0.1135467,0.20491385,345.2946,06/26.0/2025,2000,g 13.0,4.0
# From MPEC 2023-N01
173P/Mueller,e,16.4935,100.3459,29.2943,5.715679,0.0721277,0.26237791,92.7641,06/26.0/2025,2000,g  7.5,4.0
# From MPC 92985
174P/Echeclus,e,4.3408,173.3401,163.4289,10.75891,0.0279287,0.45480785,103.9008,06/26.0/2025,2000,g  9.4,2.0
# From MPC114608
175P/Hergenrother,e,4.9278,109.8135,74.6610,3.691495,0.1389635,0.37592210,299.6907,06/26.0/2025,2000,g 14.0,4.0
# From MPC 89015
176P/LINEAR,e,0.2312,345.6308,34.4723,3.195365,0.1725533,0.19181702,163.7873,06/26.0/2025,2000,g 15.1,2.0
# From MPEC 2020-L06
177P/Barnard,e,31.0057,271.8609,60.7622,24.50951,0.0081227,0.95421745,55.8443,06/26.0/2025,2000,g 15.0,4.0
# From MPEC 2024-R10
178P/Hug-Bell,e,11.0925,102.7846,297.9625,3.632806,0.1423445,0.48227707,256.7429,06/26.0/2025,2000,g 13.5,4.0
# From MPEC 2024-EF7
179P/Jedicke,e,19.8900,115.5080,297.2161,5.937105,0.0681306,0.30540545,76.3855,06/26.0/2025,2000,g  2.5,8.0
# From MPEC 2024-F34
180P/NEAT,e,16.8618,84.5588,94.6030,3.867771,0.1295725,0.35384012,92.6259,06/26.0/2025,2000,g 11.0,4.0
# From MPC 89012
181P/Shoemaker-Levy,e,17.4740,35.4412,336.2921,3.879184,0.1290011,0.69978101,163.1530,06/26.0/2025,2000,g 11.5,4.0
# From MPEC 2024-UQ8
182P/LONEOS,e,16.2308,72.4541,54.2094,2.948726,0.1946491,0.66394494,221.9208,06/26.0/2025,2000,g 18.0,4.0
# From MPEC 2024-VJ2
183P/Korlevic-Juric,e,18.7260,3.5310,162.6291,4.708852,0.0964565,0.10268564,281.7062,06/26.0/2025,2000,g 12.5,2.0
# From MPEC 2020-W26
184P/Lovas,e,4.5700,173.2673,186.5609,3.800847,0.1330098,0.54978988,226.7473,06/26.0/2025,2000,g 13.5,4.0
# From MPEC 2024-F91
185P/Petriew,e,14.0096,214.1227,181.9205,3.099719,0.1806012,0.69940240,128.9880,06/26.0/2025,2000,g 15.0,4.0
# From MPEC 2022-X67
186P/Garradd,e,28.6581,325.8732,268.4607,4.856246,0.0920986,0.12378425,219.9419,06/26.0/2025,2000,g  7.5,4.0
# From MPEC 2020-SI8
187P/LINEAR,e,13.6677,109.8455,131.6750,4.550014,0.1015512,0.15615622,263.2080,06/26.0/2025,2000,g  9.0,4.0
# From MPEC 2025-MC0
188P/LINEAR-Mueller,e,10.5248,358.9135,26.8302,4.365102,0.1080718,0.41669398,328.5217,06/26.0/2025,2000,g 11.5,4.0
# From MPEC 2022-QD9
189P/NEAT,e,20.1206,281.6853,16.1825,2.939756,0.1955407,0.59072231,201.7124,06/26.0/2025,2000,g 19.0,4.0
# From MPC182889
190P/Mueller,e,2.1748,335.4704,50.5540,4.231028,0.1132492,0.52272795,20.8201,06/26.0/2025,2000,g 13.0,4.0
# From MPEC 2024-TD8
191P/McNaught,e,8.8395,98.1788,284.2679,3.640919,0.1418690,0.38511833,221.1570,06/26.0/2025,2000,g 13.0,4.0
# From MPC182889
192P/Shoemaker-Levy,e,24.5795,51.5774,313.0373,6.454671,0.0601026,0.77339075,23.8906,06/26.0/2025,2000,g 15.0,4.0
# From MPEC 2024-R10
193P/LINEAR-NEAT,e,10.6790,335.1858,8.1151,3.579570,0.1455317,0.39259646,204.0719,06/26.0/2025,2000,g 14.0,4.0
# From MPEC 2024-GJ3
194P/LINEAR,e,11.8035,349.5105,128.6199,4.122852,0.1177355,0.56339485,59.7715,06/26.0/2025,2000,g 16.0,4.0
# From MPEC 2025-MC0
195P/Hill,e,36.4164,243.0973,250.6070,6.443816,0.0602545,0.31088092,357.5497,06/26.0/2025,2000,g  8.5,4.0
# From MPEC 2024-GJ3
196P/Tichy,e,19.2947,24.1244,12.1381,3.806305,0.1327238,0.42751401,128.8524,06/26.0/2025,2000,g 13.5,4.0
# From MPEC 2023-UR6
197P/LINEAR,e,25.3065,66.1948,189.9549,2.908211,0.1987308,0.61900840,185.5439,06/26.0/2025,2000,g 16.5,2.0
# From MPEC 2024-VJ2
198P/ODAS,e,1.3400,358.4689,69.0495,3.592128,0.1447693,0.44467621,345.0727,06/26.0/2025,2000,g 12.5,4.0
# From MPEC 2024-Q20
199P/Shoemaker,e,24.9393,92.3437,191.7630,5.873542,0.0692395,0.50439292,47.6825,06/26.0/2025,2000,g 10.0,4.0
# From MPEC 2022-C56
200P/Larsen,e,12.0950,234.8106,134.3842,4.953387,0.0894027,0.33114192,193.0568,06/26.0/2025,2000,g  9.0,4.0
# From MPC 93588
201P/LONEOS,e,5.7370,41.5245,19.8035,3.354638,0.1604115,0.63750690,239.0274,06/26.0/2025,2000,g 14.0,4.0
# From MPC182889
202P/Scotti,e,2.1418,177.3005,274.4964,4.099115,0.1187597,0.25106627,48.0630,06/26.0/2025,2000,g 13.5,4.0
# From MPEC 2025-A40
203P/Korlevic,e,2.9760,290.2215,154.9385,4.668462,0.0977110,0.31638584,189.2144,06/26.0/2025,2000,g 14.5,2.0
# From MPEC 2024-JU4
204P/LINEAR-NEAT,e,6.5980,108.4731,356.7293,3.584206,0.1452495,0.48828970,138.2353,06/26.0/2025,2000,g 14.0,4.0
# From MPEC 2023_O39
205P/Giacobini,e,15.3004,179.6236,154.1532,3.543138,0.1477821,0.56718218,186.2725,06/26.0/2025,2000,g 13.0,4.0
# From MPC 75725
206P/Barnard-Boattini,e,33.6170,202.3411,189.5770,3.491455,0.1510756,0.55112764,237.7797,06/26.0/2025,2000,g 19.0,4.0
# From MPEC 2024-NE4
207P/NEAT,e,10.1985,198.1375,273.0293,3.886185,0.1286527,0.75852686,65.7579,06/26.0/2025,2000,g 16.0,4.0
# From MPC182889
208P/McMillan,e,4.4110,36.3311,310.7799,4.041422,0.1213117,0.37415487,37.0898,06/26.0/2025,2000,g 12.5,4.0
# From MPEC 2024-TD8
209P/LINEAR,e,21.2829,62.7642,152.4809,2.957810,0.1937531,0.67403097,67.1370,06/26.0/2025,2000,g 17.0,2.0
# From MPC105242
210P/Christensen,e,10.2819,93.8249,345.9173,3.160691,0.1754006,0.83407183,333.7392,06/26.0/2025,2000,g 13.5,4.0
# From MPEC 2024-JU4
211P/Hill,e,18.9248,117.1007,4.3513,3.548896,0.1474226,0.34448984,146.6593,06/26.0/2025,2000,g 12.5,4.0
# From MPEC 2024-GJ3
212P/NEAT,e,22.1491,97.9718,14.0613,3.903054,0.1278195,0.58675624,54.5596,06/26.0/2025,2000,g 17.0,2.0
# From MPC184418
213P/VanNess,e,10.4316,310.8969,6.5403,3.357307,0.1602203,0.40980238,94.6025,06/26.0/2025,2000,g 10.5,4.0
# From MPEC 2025-GB9
213P-B/Van Ness,e,10.4310,310.8933,6.5594,3.357186,0.1602289,0.40967605,94.6286,06/26.0/2025,2000,g 17.0,4.0
# From MPC 76570
213P-C/Van Ness,e,10.3503,5.2087,312.1552,3.355379,0.1603584,0.40964803,94.8503,06/26.0/2025,2000,g 17.5,4.0
# From MPC 92986
214P/LINEAR,e,15.1929,348.2118,190.1201,3.616473,0.1433099,0.48627936,143.8283,06/26.0/2025,2000,g 13.0,4.0
# From MPC184418
215P/NEAT,e,10.5763,56.6782,262.2452,4.335861,0.1091669,0.16492891,223.8389,06/26.0/2025,2000,g 11.0,4.0
# From MPEC 2024-N80
216P/LINEAR,e,9.0616,359.7807,151.7707,3.860298,0.1299490,0.44901800,69.6531,06/26.0/2025,2000,g 13.0,4.0
# From MPEC 2025-MC0
